[{"OBJECT_NAME":"KINEIS-2C","OBJECT_ID":"2025-028B","EPOCH":"2026-03-09T22:20:44.060928","MEAN_MOTION":14.72317253,"ECCENTRICITY":9.527e-5,"INCLINATION":98.0273,"RA_OF_ASC_NODE":124.0949,"ARG_OF_PERICENTER":34.6076,"MEAN_ANOMALY":325.5193,"EPHEMERIS_TYPE":0,"CLASSIFICATION_TYPE":"U","NORAD_CAT_ID":62929,"ELEMENT_SET_NO":999,"REV_AT_EPOCH":5800,"BSTAR":0.00026506877,"MEAN_MOTION_DOT":1.626e-5,"MEAN_MOTION_DDOT":0},{"OBJECT_NAME":"CZ-6A DEB","OBJECT_ID":"2024-140UN","EPOCH":"2026-03-09T13:21:34.054560","MEAN_MOTION":14.59867693,"ECCENTRICITY":0.00862723,"INCLINATION":88.9215,"RA_OF_ASC_NODE":276.5989,"ARG_OF_PERICENTER":164.4427,"MEAN_ANOMALY":195.9468,"EPHEMERIS_TYPE":0,"CLASSIFICATION_TYPE":"U","NORAD_CAT_ID":61325,"ELEMENT_SET_NO":999,"REV_AT_EPOCH":8022,"BSTAR":0.0012587674,"MEAN_MOTION_DOT":6.363e-5,"MEAN_MOTION_DDOT":0}]
